UNKNOWN                 
1 81864U          26005.28723510  .00003108  00000+0  12043-2 0  9991
2 81864  65.6708  11.8308 0764802   2.9144 357.5985 13.32454531553971
UNKNOWN                 
1 81865U          26004.25800675  .00002194  00000+0  18015-2 0  9995
2 81865  82.8049  11.2985 0061071 301.2759  73.6142 13.88097736611675
UNKNOWN                 
1 81893U          26004.17725149  .00001614  00000+0  16893-2 0  9997
2 81893 100.0491 353.7198 0020236 210.7052 149.2913 13.76753646607169
UNKNOWN                 
1 81899U          26002.25970811  .00002094  00000+0  48807-2 0  9991
2 81899 102.4155 112.7655 0182913 171.7155 188.7042 13.20263007581696
UNKNOWN                 
1 81921U          26004.68085498  .00001329  00000+0  56756-3 0  9997
2 81921  65.7089   1.0574 0844358 104.6171 264.9936 13.15224832 28805
UNKNOWN                 
1 81946U          26002.58563674  .00000431  00000+0  15766-2 0  9996
2 81946  66.4176 112.5571 0673549 341.2440  27.1271 12.42586877550475
UNKNOWN                 
1 81947U          26002.56901069  .00011319  00000+0  10837-2 0  9990
2 81947  66.0755 110.0643 0373171 129.7196 233.7438 14.53024728634045
UNKNOWN                 
1 81964U          26003.95774060  .00000353  00000+0  31481-3 0  9997
2 81964  66.5826 203.6046 0029736  67.9678 292.4556 13.95811901617144
UNKNOWN                 
1 81969U          26003.66682237  .00019733  00000+0  11592-2 0  9996
2 81969  86.6868 143.9224 0006137  93.9489 266.2451 15.11586101443489
UNKNOWN                 
1 81995U          25359.53761972  .00005942  00000+0  11153-2 0  9998
2 81995  65.7467  90.5357 0520422 290.7377  63.8680 14.03903016606020
UNKNOWN                 
1 82043U          26005.67578000  .00002081  00000+0  58135-3 0  9998
2 82043  97.9293 157.3680 0231155  11.7395 348.9053 14.32653326577276
UNKNOWN                 
1 82051U          26003.99073099  .00011314  00000+0  36944-2 0  9990
2 82051  98.7471  94.8161 0093501 194.0641 165.7938 14.36262244575602
UNKNOWN                 
1 82073U          26004.00414450  .00006030  00000+0  15313-2 0  9993
2 82073  97.7511  83.0063 0206738 219.4972 139.0996 14.39016734578322
UNKNOWN                 
1 82139U          26003.69638530  .00003863  00000+0  19344-2 0  9996
2 82139  99.0196  76.8284 0081834 340.3920  19.4111 14.15542265483220
UNKNOWN                 
1 82162U          26005.08146489  .00004576  00000+0  68082-2 0  9999
2 82162 100.4764 295.9142 0042203 175.2263 184.9281 13.53768109507460
UNKNOWN                 
1 82180U          26004.00135560  .00021180  00000+0  27366-2 0  9998
2 82180  65.6540 225.4166 0313441 205.8187 152.6986 14.52074506604988
UNKNOWN                 
1 82189U          26004.71806715  .00000544  00000+0  19895-3 0  9992
2 82189  74.0349   6.1825 0016815 196.7280 163.3321 14.35230970635718
UNKNOWN                 
1 82199U          26005.31478810  .00000681  00000+0  57804-3 0  9995
2 82199  82.9655 216.1589 0037456 330.2867 206.4561 13.85806877612952
UNKNOWN                 
1 82205U          26003.77446132  .00003722  00000+0  10545-2 0  9992
2 82205  63.0098 182.8219 0494137 295.2696  59.7926 13.93455564611071
UNKNOWN                 
1 82223U          25363.91996862  .00003934  00000+0  21293-2 0  9993
2 82223  99.3201 250.5449 0069125 298.6502  60.7728 14.11928216451215
UNKNOWN                 
1 82250U          26001.55737447  .00005459  00000+0  28317-2 0  9993
2 82250  98.9108 271.9508 0069410 132.0740 351.3782 14.13943706619433
UNKNOWN                 
1 82272U          25362.92796868  .00000505  00000+0  17080-2 0  9991
2 82272  67.5222 171.4173 0753072  95.9674 272.7596 12.33569308273937
UNKNOWN                 
1 82295U          25346.72562200  .00002770  00000+0  98631-3 0  9995
2 82295  66.6173 148.2102 0127087 223.3779 135.7264 14.31337782579720
UNKNOWN                 
1 82303U          26005.38105340  .00037350  00000+0  30802-1 0  9994
2 82303  81.9318 342.7817 0048748 300.3495 211.5985 13.88256667517708
UNKNOWN                 
1 82311U          25361.97357085  .00000826  00000+0  12222-2 0  9992
2 82311  99.4332  55.1141 0109896 268.4061  90.4486 13.54566003552381
UNKNOWN                 
1 82363U          25362.80053557  .00000791  00000+0  13329-2 0  9999
2 82363  66.9345 159.5693 0455379 155.5026 206.8417 13.15628875292379
UNKNOWN                 
1 82369U          26005.29003435  .00000131  00000+0  11885-3 0  9997
2 82369  98.8983  24.6498 0082898 273.8071  85.3618 13.98185652560461
UNKNOWN                 
1 82381U          26005.61088502  .00036225  00000+0  45351-2 0  9992
2 82381  98.3948 236.4993 0010462  56.1275 304.0930 14.82101650514344
UNKNOWN                 
1 82402U          26005.39555975  .00010428  00000+0  75396-3 0  9994
2 82402  86.6675 145.3870 0009780  76.5608 283.6716 15.03894840458024
UNKNOWN                 
1 82432U          25365.11000664  .00004028  00000+0  85314-3 0  9995
2 82432  74.0071 305.5467 0054207 105.8778 254.8371 14.58640510485588
UNKNOWN                 
1 82448U          26004.97582682  .00008563  00000+0  61627-3 0  9991
2 82448  85.8738 186.9130 0008274 164.1118 196.0377 15.04058727440536
UNKNOWN                 
1 82453U          26004.35107658 -.00000011  00000+0  25781-3 0  9997
2 82453 102.1806 325.7053 0093359 165.3426 195.0375 12.39703658548868
UNKNOWN                 
1 82458U          26005.03648302  .00004221  00000+0  18758-2 0  9995
2 82458  66.5129 122.7962 0054053 351.5632   8.4546 14.23105341613358
UNKNOWN                 
1 82484U          26004.84050498  .00000232  00000+0  38857-3 0  9996
2 82484  99.3544  30.2761 0045418 136.0634 224.4130 13.55809263593764
UNKNOWN                 
1 82494U          26005.62553560  .00032052  00000+0  35602-2 0  9991
2 82494  74.0084 334.2138 0001746 127.3659 232.7680 14.87056373 88511
UNKNOWN                 
1 82500U          26004.11520486  .00006822  00000+0  31005-2 0  9992
2 82500  70.9676 316.4925 0113857  81.1867 280.2130 14.18687046622122
UNKNOWN                 
1 82524U          26004.63886656  .00010773  00000+0  34075-2 0  9999
2 82524  73.2835 137.8269 0135831 265.0299 110.3015 14.35079219580321
UNKNOWN                 
1 82529U          25364.00461961  .00000580  00000+0  95118-3 0  9992
2 82529  99.7894  86.8562 0239354 198.4776 339.9026 13.41124446592050
UNKNOWN                 
1 82560U          25362.62853270  .00001664  00000+0  13735-2 0  9999
2 82560  99.9907 306.3587 0010358 271.2339 268.1289 13.90689818614079
UNKNOWN                 
1 82597U          26005.46393545  .00002822  00000+0  94839-3 0  9992
2 82597  66.7712  85.5211 0099070 290.6861  68.3642 14.35851312632385
UNKNOWN                 
1 82617U          26003.81932479  .00001096  00000+0  29094-3 0  9990
2 82617  74.0255 202.1946 0037914 141.5605 218.8267 14.49433378640021
UNKNOWN                 
1 82627U          26003.36537215  .00000963  00000+0  24952-2 0  9999
2 82627  82.4753 233.2110 0012977  32.2817  92.2920 13.16337211581676
UNKNOWN                 
1 82642U          25364.56294841  .00001593  00000+0  89851-3 0  9992
2 82642  98.9750 274.9863 0134526 187.0061 172.9230 14.07270644618649
UNKNOWN                 
1 82683U          26005.64495344  .00001631  00000+0  62910-3 0  9990
2 82683  98.1711  77.8005 0209560 326.1508  32.6438 14.20192894465663
UNKNOWN                 
1 82693U          25361.17191390  .00003241  00000+0  37457-2 0  9993
2 82693 100.5299 326.0100 0045461 347.9533  12.0519 13.69589402555732
UNKNOWN                 
1 82698U          26004.66872402  .00003391  00000+0  20043-2 0  9996
2 82698  61.6120  89.0744 0685791 298.1265  55.2067 13.29540177541422
UNKNOWN                 
1 82708U          25359.04269291  .00000918  00000+0  36526-2 0  9993
2 82708 102.1623 203.3844 0063016 263.8404  95.5505 12.90592150525105
UNKNOWN                 
1 82729U          26004.57252563  .00000708  00000+0  24854-2 0  9994
2 82729  67.9652 106.4176 0832900 355.1797   4.1526 12.17770074537985
UNKNOWN                 
1 82739U          26004.70082391  .00003150  00000+0  26099-2 0  9997
2 82739  99.0888 165.2571 0173812 231.6552 146.0684 13.82822909609284
UNKNOWN                 
1 82741U          26003.96780358  .00003844  00000+0  41010-2 0  9995
2 82741 102.8445  51.5623 0205866 216.5539 142.1392 13.66162335600114
UNKNOWN                 
1 82783U          26004.33694365  .00000159  00000+0  44231-3 0  9990
2 82783  90.3385  38.8950 0023313  57.4290 302.9084 13.09045167507318
UNKNOWN                 
1 82798U          25365.78444536  .00004034  00000+0  17764-2 0  9993
2 82798  82.9500 176.5288 0029711 113.9721 307.5300 14.23003159315084
UNKNOWN                 
1 82820U          26005.17538364  .00004799  00000+0  16755-2 0  9994
2 82820  99.7884 174.0358 0049074 307.1248  52.5455 14.35140709628998
UNKNOWN                 
1 82854U          26004.82340184  .00002434  00000+0  19044-2 0  9991
2 82854  82.6894  46.4959 0129665 214.5987 144.6690 13.87914813611001
UNKNOWN                 
1 82873U          26004.50851009  .00005061  00000+0  21837-2 0  9992
2 82873  99.9971 266.7958 0037790 222.2419 137.5843 14.24627904624478
UNKNOWN                 
1 82875U          26004.24139120  .00000918  00000+0  25100-3 0  9992
2 82875  98.6768 352.0376 0377086 218.3894 138.9892 14.15201013547653
UNKNOWN                 
1 82893U          26003.26953496  .00016015  00000+0  59546-2 0  9998
2 82893  98.9620 124.0567 0022458 335.5439  24.4676 14.32010394427058
UNKNOWN                 
1 82912U          25357.12559924  .00003672  00000+0  15171-2 0  9995
2 82912  65.8351 150.3467 0775830 264.1410  87.0766 13.27744111580701
UNKNOWN                 
1 82961U          25364.90216703  .00018138  00000+0  27858-1 0  9995
2 82961  99.8687 158.4700 0400034 318.5050  38.6325 13.23760813558114
